HXMT (HUIYAN)           
1 42758U 17034A   26098.32837580  .00005716  00000+0  28537-3 0  9998
2 42758  43.0137 211.8441 0030463  60.9422 299.4472 15.17873600487044
SAOCOM 1A               
1 43641U 18076A   26097.65502935 -.00000157  00000+0 -13190-4 0  9991
2 43641  97.8902 285.4187 0001354  85.5989 274.5379 14.82151555405651
H-2A R/B                
1 43682U 18084L   26098.19369742  .00018867  00000+0  43048-3 0  9991
2 43682  98.8683 321.9121 0023161 280.8334  79.0302 15.42689582410328
SAOCOM 1B               
1 46265U 20059A   26098.29387127  .00000643  00000+0  87378-4 0  9992
2 46265  97.8892 285.1443 0001475  84.1620 275.9761 14.82156335303138
CSS (TIANHE)            
1 48274U 21035A   26098.26559296  .00026618  00000+0  29772-3 0  9997
2 48274  41.4683  28.0025 0004123 158.7082 201.3929 15.62110392282234
COSMOS 2550             
1 48865U 21056A   26096.88261823 -.00000182  00000+0  29521-6 0  9992
2 48865  67.1413 315.6012 0008271 269.8278  90.1929 15.33838997267789
CZ-2C R/B               
1 52794U 22058K   26098.25818882  .00034274  00000+0  45930-3 0  9994
2 52794  50.1866 165.9291 0040892 327.6342  32.2122 15.56603007214730
CZ-2C R/B               
1 54039U 22132E   26098.26515553  .00048358  00000+0  49289-3 0  9990
2 54039  97.2953 102.5441 0014856 349.5840  10.5110 15.64833114194998
GSLV R/B                
1 54149U 22138AN  26098.20218912  .00001779  00000+0  15148-3 0  9994
2 54149  87.3842 156.4795 0023255  49.6773 310.6485 14.96967615188342
XRISM                   
1 57800U 23137A   26098.28783810  .00005137  00000+0  28731-3 0  9997
2 57800  31.0022  92.1671 0007743 335.8403  24.1872 15.11864165142271
ACS3                    
1 59588U 24077B   26098.22047641  .00007230  00000+0  56501-2 0  9996
2 59588  97.1919  32.6993 0073201  11.2598 349.0184 13.91076437 98304
HTV-X1                  
1 66174U 25241A   26098.25613653  .00004425  00000+0  15006-3 0  9993
2 66174  51.6370 290.5244 0007362 287.5429  72.4747 15.32581843 25478
SZ-21 MODULE            
1 66515U 25246C   26098.14836004  .00040364  00000+0  31306-3 0  9995
2 66515  41.4751  21.6986 0003828 243.7745 116.2704 15.71029132 22705
