[{"OBJECT_NAME":"HXMT (HUIYAN)","OBJECT_ID":"2017-034A","EPOCH":"2026-04-08T07:52:51.669120","MEAN_MOTION":15.178736,"ECCENTRICITY":0.00304635,"INCLINATION":43.0137,"RA_OF_ASC_NODE":211.8441,"ARG_OF_PERICENTER":60.9422,"MEAN_ANOMALY":299.4472,"EPHEMERIS_TYPE":0,"CLASSIFICATION_TYPE":"U","NORAD_CAT_ID":42758,"ELEMENT_SET_NO":999,"REV_AT_EPOCH":48704,"BSTAR":0.00028536944,"MEAN_MOTION_DOT":5.716e-5,"MEAN_MOTION_DDOT":0},{"OBJECT_NAME":"SAOCOM 1A","OBJECT_ID":"2018-076A","EPOCH":"2026-04-07T15:43:14.535840","MEAN_MOTION":14.82151555,"ECCENTRICITY":0.00013546,"INCLINATION":97.8902,"RA_OF_ASC_NODE":285.4187,"ARG_OF_PERICENTER":85.5989,"MEAN_ANOMALY":274.5379,"EPHEMERIS_TYPE":0,"CLASSIFICATION_TYPE":"U","NORAD_CAT_ID":43641,"ELEMENT_SET_NO":999,"REV_AT_EPOCH":40565,"BSTAR":-1.3190226e-5,"MEAN_MOTION_DOT":-1.57e-6,"MEAN_MOTION_DDOT":0},{"OBJECT_NAME":"H-2A R/B","OBJECT_ID":"2018-084L","EPOCH":"2026-04-08T04:38:55.457088","MEAN_MOTION":15.42689582,"ECCENTRICITY":0.00231618,"INCLINATION":98.8683,"RA_OF_ASC_NODE":321.9121,"ARG_OF_PERICENTER":280.8334,"MEAN_ANOMALY":79.0302,"EPHEMERIS_TYPE":0,"CLASSIFICATION_TYPE":"U","NORAD_CAT_ID":43682,"ELEMENT_SET_NO":999,"REV_AT_EPOCH":41032,"BSTAR":0.00043047883,"MEAN_MOTION_DOT":0.00018867,"MEAN_MOTION_DDOT":0},{"OBJECT_NAME":"SAOCOM 1B","OBJECT_ID":"2020-059A","EPOCH":"2026-04-08T07:03:10.477728","MEAN_MOTION":14.82156335,"ECCENTRICITY":0.00014752,"INCLINATION":97.8892,"RA_OF_ASC_NODE":285.1443,"ARG_OF_PERICENTER":84.162,"MEAN_ANOMALY":275.9761,"EPHEMERIS_TYPE":0,"CLASSIFICATION_TYPE":"U","NORAD_CAT_ID":46265,"ELEMENT_SET_NO":999,"REV_AT_EPOCH":30313,"BSTAR":8.7378135e-5,"MEAN_MOTION_DOT":6.43e-6,"MEAN_MOTION_DDOT":0},{"OBJECT_NAME":"CSS (TIANHE)","OBJECT_ID":"2021-035A","EPOCH":"2026-04-08T06:22:27.231744","MEAN_MOTION":15.62110392,"ECCENTRICITY":0.0004123,"INCLINATION":41.4683,"RA_OF_ASC_NODE":28.0025,"ARG_OF_PERICENTER":158.7082,"MEAN_ANOMALY":201.3929,"EPHEMERIS_TYPE":0,"CLASSIFICATION_TYPE":"U","NORAD_CAT_ID":48274,"ELEMENT_SET_NO":999,"REV_AT_EPOCH":28223,"BSTAR":0.00029771721,"MEAN_MOTION_DOT":0.00026618,"MEAN_MOTION_DDOT":0},{"OBJECT_NAME":"COSMOS 2550","OBJECT_ID":"2021-056A","EPOCH":"2026-04-06T21:10:58.215072","MEAN_MOTION":15.33838997,"ECCENTRICITY":0.00082712,"INCLINATION":67.1413,"RA_OF_ASC_NODE":315.6012,"ARG_OF_PERICENTER":269.8278,"MEAN_ANOMALY":90.1929,"EPHEMERIS_TYPE":0,"CLASSIFICATION_TYPE":"U","NORAD_CAT_ID":48865,"ELEMENT_SET_NO":999,"REV_AT_EPOCH":26778,"BSTAR":2.95211e-7,"MEAN_MOTION_DOT":-1.82e-6,"MEAN_MOTION_DDOT":0},{"OBJECT_NAME":"CZ-2C R/B","OBJECT_ID":"2022-058K","EPOCH":"2026-04-08T06:11:47.514048","MEAN_MOTION":15.56603007,"ECCENTRICITY":0.00408929,"INCLINATION":50.1866,"RA_OF_ASC_NODE":165.9291,"ARG_OF_PERICENTER":327.6342,"MEAN_ANOMALY":32.2122,"EPHEMERIS_TYPE":0,"CLASSIFICATION_TYPE":"U","NORAD_CAT_ID":52794,"ELEMENT_SET_NO":999,"REV_AT_EPOCH":21473,"BSTAR":0.00045930484,"MEAN_MOTION_DOT":0.00034274,"MEAN_MOTION_DDOT":0},{"OBJECT_NAME":"CZ-2C R/B","OBJECT_ID":"2022-132E","EPOCH":"2026-04-08T06:21:49.437792","MEAN_MOTION":15.64833114,"ECCENTRICITY":0.0014856,"INCLINATION":97.2953,"RA_OF_ASC_NODE":102.5441,"ARG_OF_PERICENTER":349.584,"MEAN_ANOMALY":10.511,"EPHEMERIS_TYPE":0,"CLASSIFICATION_TYPE":"U","NORAD_CAT_ID":54039,"ELEMENT_SET_NO":999,"REV_AT_EPOCH":19499,"BSTAR":0.00049289319,"MEAN_MOTION_DOT":0.00048358,"MEAN_MOTION_DDOT":0},{"OBJECT_NAME":"GSLV R/B","OBJECT_ID":"2022-138AN","EPOCH":"2026-04-08T04:51:09.139968","MEAN_MOTION":14.96967615,"ECCENTRICITY":0.00232555,"INCLINATION":87.3842,"RA_OF_ASC_NODE":156.4795,"ARG_OF_PERICENTER":49.6773,"MEAN_ANOMALY":310.6485,"EPHEMERIS_TYPE":0,"CLASSIFICATION_TYPE":"U","NORAD_CAT_ID":54149,"ELEMENT_SET_NO":999,"REV_AT_EPOCH":18834,"BSTAR":0.00015147681,"MEAN_MOTION_DOT":1.779e-5,"MEAN_MOTION_DDOT":0},{"OBJECT_NAME":"XRISM","OBJECT_ID":"2023-137A","EPOCH":"2026-04-08T06:54:29.211840","MEAN_MOTION":15.11864165,"ECCENTRICITY":0.00077434,"INCLINATION":31.0022,"RA_OF_ASC_NODE":92.1671,"ARG_OF_PERICENTER":335.8403,"MEAN_ANOMALY":24.1872,"EPHEMERIS_TYPE":0,"CLASSIFICATION_TYPE":"U","NORAD_CAT_ID":57800,"ELEMENT_SET_NO":999,"REV_AT_EPOCH":14227,"BSTAR":0.00028730985,"MEAN_MOTION_DOT":5.137e-5,"MEAN_MOTION_DDOT":0},{"OBJECT_NAME":"ACS3","OBJECT_ID":"2024-077B","EPOCH":"2026-04-08T05:17:29.161824","MEAN_MOTION":13.91076437,"ECCENTRICITY":0.00732011,"INCLINATION":97.1919,"RA_OF_ASC_NODE":32.6993,"ARG_OF_PERICENTER":11.2598,"MEAN_ANOMALY":349.0184,"EPHEMERIS_TYPE":0,"CLASSIFICATION_TYPE":"U","NORAD_CAT_ID":59588,"ELEMENT_SET_NO":999,"REV_AT_EPOCH":9830,"BSTAR":0.0056500917,"MEAN_MOTION_DOT":7.23e-5,"MEAN_MOTION_DDOT":0},{"OBJECT_NAME":"HTV-X1","OBJECT_ID":"2025-241A","EPOCH":"2026-04-08T06:08:50.196192","MEAN_MOTION":15.32581843,"ECCENTRICITY":0.00073625,"INCLINATION":51.637,"RA_OF_ASC_NODE":290.5244,"ARG_OF_PERICENTER":287.5429,"MEAN_ANOMALY":72.4747,"EPHEMERIS_TYPE":0,"CLASSIFICATION_TYPE":"U","NORAD_CAT_ID":66174,"ELEMENT_SET_NO":999,"REV_AT_EPOCH":2547,"BSTAR":0.00015005997,"MEAN_MOTION_DOT":4.425e-5,"MEAN_MOTION_DDOT":0},{"OBJECT_NAME":"SZ-21 MODULE","OBJECT_ID":"2025-246C","EPOCH":"2026-04-08T03:33:38.307456","MEAN_MOTION":15.71029132,"ECCENTRICITY":0.00038283,"INCLINATION":41.4751,"RA_OF_ASC_NODE":21.6986,"ARG_OF_PERICENTER":243.7745,"MEAN_ANOMALY":116.2704,"EPHEMERIS_TYPE":0,"CLASSIFICATION_TYPE":"U","NORAD_CAT_ID":66515,"ELEMENT_SET_NO":999,"REV_AT_EPOCH":2270,"BSTAR":0.00031306428,"MEAN_MOTION_DOT":0.00040364,"MEAN_MOTION_DDOT":0}]
